{
  "type": "FeatureCollection",
  "features": [
    {
      "type": "Feature",
      "properties": {
        "norad_id": 58701,
        "name": "TIANMU-1 16",
        "group": "weather",
        "lat": 77.80347814215222,
        "lon": 120.34739352507364,
        "alt_km": 486.85428544852675,
        "timestamp": "2025-12-02T17:49:11.668978+00:00",
        "meta_object_name": "TIANMU-1 16",
        "meta_object_id": "2024-004B",
        "meta_epoch": "2025-11-28T17:21:14.562144",
        "meta_mean_motion": 15.24146454,
        "meta_eccentricity": 0.00054689,
        "meta_inclination": 97.457,
        "meta_ra_of_asc_node": 153.6495,
        "meta_arg_of_pericenter": 351.9748,
        "meta_mean_anomaly": 8.1401,
        "meta_ephemeris_type": 0,
        "meta_classification_type": "U",
        "meta_norad_cat_id": 58701,
        "meta_element_set_no": 999,
        "meta_rev_at_epoch": 10521,
        "meta_bstar": 5.4123761e-05,
        "meta_mean_motion_dot": 1.245e-05,
        "meta_mean_motion_ddot": 0,
        "tle_line1": "1 58701U 24004B   25332.72308521  .00001245  00000+0  54124-4 0  9995",
        "tle_line2": "2 58701  97.4570 153.6495 0005468 351.9748   8.1401 15.24146454105217"
      },
      "geometry": {
        "type": "Point",
        "coordinates": [
          120.34739352507364,
          77.80347814215222
        ]
      }
    },
    {
      "type": "Feature",
      "properties": {
        "norad_id": 58702,
        "name": "TIANMU-1 17",
        "group": "weather",
        "lat": 16.105831067075986,
        "lon": -19.778194364079972,
        "alt_km": 496.78637033697487,
        "timestamp": "2025-12-02T17:49:11.668994+00:00",
        "meta_object_name": "TIANMU-1 17",
        "meta_object_id": "2024-004C",
        "meta_epoch": "2025-12-02T12:22:39.323424",
        "meta_mean_motion": 15.24260266,
        "meta_eccentricity": 0.0004394,
        "meta_inclination": 97.46,
        "meta_ra_of_asc_node": 157.8278,
        "meta_arg_of_pericenter": 342.2364,
        "meta_mean_anomaly": 17.8719,
        "meta_ephemeris_type": 0,
        "meta_classification_type": "U",
        "meta_norad_cat_id": 58702,
        "meta_element_set_no": 999,
        "meta_rev_at_epoch": 10578,
        "meta_bstar": 0.00037108,
        "meta_mean_motion_dot": 8.991e-05,
        "meta_mean_motion_ddot": 0,
        "tle_line1": "1 58702U 24004C   25336.51573291  .00008991  00000+0  37108-3 0  9992",
        "tle_line2": "2 58702  97.4600 157.8278 0004394 342.2364  17.8719 15.24260266105780"
      },
      "geometry": {
        "type": "Point",
        "coordinates": [
          -19.778194364079972,
          16.105831067075986
        ]
      }
    },
    {
      "type": "Feature",
      "properties": {
        "norad_id": 58703,
        "name": "TIANMU-1 18",
        "group": "weather",
        "lat": -73.73823175071344,
        "lon": -48.45368353287043,
        "alt_km": 500.23948898735944,
        "timestamp": "2025-12-02T17:49:11.669015+00:00",
        "meta_object_name": "TIANMU-1 18",
        "meta_object_id": "2024-004D",
        "meta_epoch": "2025-12-02T11:58:31.637856",
        "meta_mean_motion": 15.24252986,
        "meta_eccentricity": 0.0003756,
        "meta_inclination": 97.4618,
        "meta_ra_of_asc_node": 158.0042,
        "meta_arg_of_pericenter": 343.9524,
        "meta_mean_anomaly": 16.1593,
        "meta_ephemeris_type": 0,
        "meta_classification_type": "U",
        "meta_norad_cat_id": 58703,
        "meta_element_set_no": 999,
        "meta_rev_at_epoch": 10578,
        "meta_bstar": 0.00034227,
        "meta_mean_motion_dot": 8.284e-05,
        "meta_mean_motion_ddot": 0,
        "tle_line1": "1 58703U 24004D   25336.49897729  .00008284  00000+0  34227-3 0  9999",
        "tle_line2": "2 58703  97.4618 158.0042 0003756 343.9524  16.1593 15.24252986105781"
      },
      "geometry": {
        "type": "Point",
        "coordinates": [
          -48.45368353287043,
          -73.73823175071344
        ]
      }
    },
    {
      "type": "Feature",
      "properties": {
        "norad_id": 58990,
        "name": "INSAT-3DS",
        "group": "weather",
        "lat": 0.020610824541338908,
        "lon": 61.229855784183336,
        "alt_km": 35793.203701395774,
        "timestamp": "2025-12-02T17:49:11.669034+00:00",
        "meta_object_name": "INSAT-3DS",
        "meta_object_id": "2024-033A",
        "meta_epoch": "2025-12-02T02:11:22.197696",
        "meta_mean_motion": 1.00269802,
        "meta_eccentricity": 0.00015795,
        "meta_inclination": 0.0134,
        "meta_ra_of_asc_node": 265.382,
        "meta_arg_of_pericenter": 348.0562,
        "meta_mean_anomaly": 292.7221,
        "meta_ephemeris_type": 0,
        "meta_classification_type": "U",
        "meta_norad_cat_id": 58990,
        "meta_element_set_no": 999,
        "meta_rev_at_epoch": 4509,
        "meta_bstar": 0,
        "meta_mean_motion_dot": -1.35e-06,
        "meta_mean_motion_ddot": 0,
        "tle_line1": "1 58990U 24033A   25336.09122914 -.00000135  00000+0  00000+0 0  9998",
        "tle_line2": "2 58990   0.0134 265.3820 0001579 348.0562 292.7221  1.00269802 45098"
      },
      "geometry": {
        "type": "Point",
        "coordinates": [
          61.229855784183336,
          0.020610824541338908
        ]
      }
    },
    {
      "type": "Feature",
      "properties": {
        "norad_id": 59051,
        "name": "METEOR-M2 4",
        "group": "weather",
        "lat": 45.43166003325437,
        "lon": 122.72518159095323,
        "alt_km": 814.9350824637177,
        "timestamp": "2025-12-02T17:49:11.669052+00:00",
        "meta_object_name": "METEOR-M2 4",
        "meta_object_id": "2024-039A",
        "meta_epoch": "2025-12-02T12:07:43.554144",
        "meta_mean_motion": 14.22398697,
        "meta_eccentricity": 0.0007583,
        "meta_inclination": 98.6751,
        "meta_ra_of_asc_node": 293.5755,
        "meta_arg_of_pericenter": 26.92,
        "meta_mean_anomaly": 333.237,
        "meta_ephemeris_type": 0,
        "meta_classification_type": "U",
        "meta_norad_cat_id": 59051,
        "meta_element_set_no": 999,
        "meta_rev_at_epoch": 9130,
        "meta_bstar": 4.7166e-05,
        "meta_mean_motion_dot": 6.1e-07,
        "meta_mean_motion_ddot": 0,
        "tle_line1": "1 59051U 24039A   25336.50536521  .00000061  00000+0  47166-4 0  9998",
        "tle_line2": "2 59051  98.6751 293.5755 0007583  26.9200 333.2370 14.22398697 91301"
      },
      "geometry": {
        "type": "Point",
        "coordinates": [
          122.72518159095323,
          45.43166003325437
        ]
      }
    },
    {
      "type": "Feature",
      "properties": {
        "norad_id": 60133,
        "name": "GOES 19",
        "group": "weather",
        "lat": 0.004093720704408811,
        "lon": -96.07214323615676,
        "alt_km": 35781.91998146325,
        "timestamp": "2025-12-02T17:49:11.669069+00:00",
        "meta_object_name": "GOES 19",
        "meta_object_id": "2024-119A",
        "meta_epoch": "2025-12-02T08:17:26.600064",
        "meta_mean_motion": 1.00271318,
        "meta_eccentricity": 0.0001224,
        "meta_inclination": 0.0186,
        "meta_ra_of_asc_node": 142.0947,
        "meta_arg_of_pericenter": 154.9302,
        "meta_mean_anomaly": 183.6098,
        "meta_ephemeris_type": 0,
        "meta_classification_type": "U",
        "meta_norad_cat_id": 60133,
        "meta_element_set_no": 999,
        "meta_rev_at_epoch": 499,
        "meta_bstar": 0,
        "meta_mean_motion_dot": -2.28e-06,
        "meta_mean_motion_ddot": 0,
        "tle_line1": "1 60133U 24119A   25336.34544676 -.00000228  00000+0  00000+0 0  9999",
        "tle_line2": "2 60133   0.0186 142.0947 0001224 154.9302 183.6098  1.00271318  4990"
      },
      "geometry": {
        "type": "Point",
        "coordinates": [
          -96.07214323615676,
          0.004093720704408811
        ]
      }
    },
    {
      "type": "Feature",
      "properties": {
        "norad_id": 65815,
        "name": "FENGYUN 3H",
        "group": "weather",
        "lat": 74.8750461973348,
        "lon": 130.85900123640351,
        "alt_km": 818.1530885238553,
        "timestamp": "2025-12-02T17:49:11.669086+00:00",
        "meta_object_name": "FENGYUN 3H",
        "meta_object_id": "2025-219A",
        "meta_epoch": "2025-12-02T10:34:28.159680",
        "meta_mean_motion": 14.19899905,
        "meta_eccentricity": 6.5e-05,
        "meta_inclination": 98.6568,
        "meta_ra_of_asc_node": 276.2554,
        "meta_arg_of_pericenter": 69.1067,
        "meta_mean_anomaly": 291.018,
        "meta_ephemeris_type": 0,
        "meta_classification_type": "U",
        "meta_norad_cat_id": 65815,
        "meta_element_set_no": 999,
        "meta_rev_at_epoch": 946,
        "meta_bstar": 8.6054e-05,
        "meta_mean_motion_dot": 1.39e-06,
        "meta_mean_motion_ddot": 0,
        "tle_line1": "1 65815U 25219A   25336.44060370  .00000139  00000+0  86054-4 0  9996",
        "tle_line2": "2 65815  98.6568 276.2554 0000650  69.1067 291.0180 14.19899905  9465"
      },
      "geometry": {
        "type": "Point",
        "coordinates": [
          130.85900123640351,
          74.8750461973348
        ]
      }
    }
  ]
}